[{"OBJECT_NAME":"STARLINK-4207","OBJECT_ID":"2022-062AT","EPOCH":"2026-03-09T04:00:13.876128","MEAN_MOTION":15.08841242,"ECCENTRICITY":0.00014491,"INCLINATION":53.2194,"RA_OF_ASC_NODE":16.4682,"ARG_OF_PERICENTER":82.0425,"MEAN_ANOMALY":278.0732,"EPHEMERIS_TYPE":0,"CLASSIFICATION_TYPE":"U","NORAD_CAT_ID":52871,"ELEMENT_SET_NO":999,"REV_AT_EPOCH":20598,"BSTAR":3.3511823e-5,"MEAN_MOTION_DOT":2.45e-6,"MEAN_MOTION_DDOT":0},{"OBJECT_NAME":"CZ-6A DEB","OBJECT_ID":"2024-140ABG","EPOCH":"2026-03-09T16:43:29.524800","MEAN_MOTION":15.18896608,"ECCENTRICITY":0.00616087,"INCLINATION":89.2171,"RA_OF_ASC_NODE":295.9508,"ARG_OF_PERICENTER":79.2706,"MEAN_ANOMALY":281.5467,"EPHEMERIS_TYPE":0,"CLASSIFICATION_TYPE":"U","NORAD_CAT_ID":61498,"ELEMENT_SET_NO":999,"REV_AT_EPOCH":8006,"BSTAR":0.0048163661,"MEAN_MOTION_DOT":0.0010689,"MEAN_MOTION_DDOT":0}]
